NORAD_CAT_ID,OBJECT_NAME,OBJECT_TYPE,EPOCH,MEAN_MOTION,ECCENTRICITY,INCLINATION,RA_OF_ASC_NODE,ARG_OF_PERICENTER,MEAN_ANOMALY,BSTAR,MEAN_MOTION_DOT,MEAN_MOTION_DDOT,TLE_LINE0,TLE_LINE1,TLE_LINE2,SEMIMAJOR_AXIS,PERIOD,APOGEE,PERIGEE,DECAYED
53559.0,STARLINK-4508,PAYLOAD,2023-11-05 16:40:25,15.08846259,0.0001557,53.2154,302.3459,95.6349,264.4821,0.00019109,2.755e-05,0.0,0 STARLINK-4508,1 53559U 22101AJ  23309.69474121  .00002755  00000-0  19109-3 0  9996,2 53559  53.2154 302.3459 0001557  95.6349 264.4821 15.08846259 67232,6917.861,95.437,540.803,538.649,0.0
53559.0,STARLINK-4508,PAYLOAD,2023-11-06 08:34:15,15.08885109,0.0001674,53.2155,299.3708,93.6051,266.5132,0.0011194,0.00017594,0.0,0 STARLINK-4508,1 53559U 22101AJ  23310.35712575  .00017594  00000-0  11194-2 0  9991,2 53559  53.2155 299.3708 0001674  93.6051 266.5132 15.08885109 67339,6917.743,95.435,540.766,538.449,0.0
53559.0,STARLINK-4508,PAYLOAD,2023-11-06 16:31:12,15.08841998,0.0003014,53.2154,297.8833,79.9541,280.1791,-0.00010668,-1.986e-05,0.0,0 STARLINK-4508,1 53559U 22101AJ  23310.68833925 -.00001986  00000-0 -10668-3 0  9996,2 53559  53.2154 297.8833 0003014  79.9541 280.1791 15.08841998 67387,6917.874,95.437,541.824,537.654,0.0
53559.0,STARLINK-4508,PAYLOAD,2023-11-07 03:38:55,15.0880654,0.0001381,53.2169,295.8031,96.618,263.497,-0.00092419,-0.00014953,0.0,0 STARLINK-4508,1 53559U 22101AJ  23311.15202618 -.00014953  00000-0 -92419-3 0  9990,2 53559  53.2169 295.8031 0001381  96.6180 263.4970 15.08806540 67456,6917.983,95.44,540.803,538.892,0.0
53559.0,STARLINK-4508,PAYLOAD,2023-11-07 08:25:04,15.08810769,0.0001327,53.2167,294.9077,90.2041,269.9103,-0.00053014,-8.708e-05,0.0,0 STARLINK-4508,1 53559U 22101AJ  23311.35074893 -.00008708  00000-0 -53014-3 0  9993,2 53559  53.2167 294.9077 0001327  90.2041 269.9103 15.08810769 67480,6917.97,95.439,540.753,538.917,0.0
53559.0,STARLINK-4508,PAYLOAD,2023-11-07 16:22:00,15.08811414,0.000112,53.2158,293.4242,90.8635,269.2486,0.00051979,7.988e-05,0.0,0 STARLINK-4508,1 53559U 22101AJ  23311.68195580  .00007988  00000-0  51979-3 0  9991,2 53559  53.2158 293.4242 0001120  90.8635 269.2486 15.08811414 67535,6917.968,95.439,540.608,539.058,0.0
53559.0,STARLINK-4508,PAYLOAD,2023-11-08 05:05:06,15.08845481,0.0001113,53.216,291.0441,96.9828,263.1291,0.0013443,0.00021174,0.0,0 STARLINK-4508,1 53559U 22101AJ  23312.21187596  .00021174  00000-0  13443-2 0  9995,2 53559  53.2160 291.0441 0001113  96.9828 263.1291 15.08845481 67613,6917.864,95.437,540.499,538.959,0.0
53559.0,STARLINK-4508,PAYLOAD,2023-11-08 08:15:52,15.08851291,0.0001057,53.2159,290.4494,94.1174,265.9939,0.0012327,0.00019391,0.0,0 STARLINK-4508,1 53559U 22101AJ  23312.34435445  .00019391  00000-0  12327-2 0  9996,2 53559  53.2159 290.4494 0001057  94.1174 265.9939 15.08851291 67630,6917.846,95.437,540.442,538.98,0.0
53559.0,STARLINK-4508,PAYLOAD,2023-11-08 16:12:47,15.08846374,0.0001321,53.216,288.9626,99.002,261.1122,0.00073772,0.00011474,0.0,0 STARLINK-4508,1 53559U 22101AJ  23312.67555537  .00011474  00000-0  73772-3 0  9993,2 53559  53.2160 288.9626 0001321  99.0020 261.1122 15.08846374 67682,6917.861,95.437,540.64,538.812,0.0
53559.0,STARLINK-4508,PAYLOAD,2023-11-09 04:55:52,15.08861209,0.0001123,53.2163,286.5834,100.8117,259.3001,0.00063714,9.873e-05,0.0,0 STARLINK-4508,1 53559U 22101AJ  23313.20546762  .00009873  00000-0  63714-3 0  9998,2 53559  53.2163 286.5834 0001123 100.8117 259.3001 15.08861209 67766,6917.816,95.436,540.457,538.904,0.0
53559.0,STARLINK-4508,PAYLOAD,2023-11-10 04:46:39,15.0885879,0.0001403,53.2164,282.1224,91.0567,269.0585,0.00045611,6.982e-05,0.0,0 STARLINK-4508,1 53559U 22101AJ  23314.19906507  .00006982  00000-0  45611-3 0  9998,2 53559  53.2164 282.1224 0001403  91.0567 269.0585 15.08858790 67916,6917.823,95.436,540.659,538.717,0.0
53559.0,STARLINK-4508,PAYLOAD,2023-11-10 07:57:25,15.08858169,0.0001337,53.2166,281.528,89.1229,270.9917,0.00041354,6.303e-05,0.0,0 STARLINK-4508,1 53559U 22101AJ  23314.33154355  .00006303  00000-0  41354-3 0  9997,2 53559  53.2166 281.5280 0001337  89.1229 270.9917 15.08858169 67934,6917.825,95.436,540.615,538.765,0.0
53559.0,STARLINK-4508,PAYLOAD,2023-11-11 03:02:03,15.08840781,0.0001611,53.2167,277.9587,103.677,256.4402,3.204e-05,2.22e-06,0.0,0 STARLINK-4508,1 53559U 22101AJ  23315.12642824  .00000222  00000-0  32040-4 0  9995,2 53559  53.2167 277.9587 0001611 103.6770 256.4402 15.08840781 68055,6917.878,95.438,540.857,538.629,0.0
53559.0,STARLINK-4508,PAYLOAD,2023-11-11 14:09:45,15.08842889,0.0001516,53.2167,275.8772,89.483,270.6336,0.00029717,4.445e-05,0.0,0 STARLINK-4508,1 53559U 22101AJ  23315.59011008  .00004445  00000-0  29717-3 0  9997,2 53559  53.2167 275.8772 0001516  89.4830 270.6336 15.08842889 68123,6917.872,95.437,540.785,538.688,0.0
53559.0,STARLINK-4508,PAYLOAD,2023-11-11 20:31:18,15.08839421,0.0001685,53.2174,274.6919,101.3474,258.7708,0.00029886,4.471e-05,0.0,0 STARLINK-4508,1 53559U 22101AJ  23315.85507059  .00004471  00000-0  29886-3 0  9998,2 53559  53.2174 274.6919 0001685 101.3474 258.7708 15.08839421 68168,6917.882,95.438,540.913,538.581,0.0
53559.0,STARLINK-4508,PAYLOAD,2023-11-12 04:28:14,15.08834524,0.0001537,53.2168,273.2032,97.4113,262.7054,0.00012655,1.726e-05,0.0,0 STARLINK-4508,1 53559U 22101AJ  23316.18627392  .00001726  00000-0  12655-3 0  9994,2 53559  53.2168 273.2032 0001537  97.4113 262.7054 15.08834524 68217,6917.897,95.438,540.825,538.699,0.0
53559.0,STARLINK-4508,PAYLOAD,2023-11-12 14:00:32,15.0884043,0.0001533,53.2169,271.4188,94.8996,265.2172,0.00030371,4.549e-05,0.0,0 STARLINK-4508,1 53559U 22101AJ  23316.58371466  .00004549  00000-0  30371-3 0  9997,2 53559  53.2169 271.4188 0001533  94.8996 265.2172 15.08840430 68274,6917.879,95.438,540.805,538.684,0.0
53559.0,STARLINK-4508,PAYLOAD,2023-11-13 05:54:24,15.08854376,0.0001562,53.2171,268.4459,97.3965,262.7205,0.00067036,0.00010401,0.0,0 STARLINK-4508,1 53559U 22101AJ  23317.24611254  .00010401  00000-0  67036-3 0  9995,2 53559  53.2171 268.4459 0001562  97.3965 262.7205 15.08854376 68374,6917.836,95.437,540.782,538.621,0.0
53559.0,STARLINK-4508,PAYLOAD,2023-11-13 20:12:52,15.08849774,0.0001947,53.2165,265.769,83.4253,276.696,0.0003792,5.754e-05,0.0,0 STARLINK-4508,1 53559U 22101AJ  23317.84227397  .00005754  00000-0  37920-3 0  9996,2 53559  53.2165 265.7690 0001947  83.4253 276.6960 15.08849774 68465,6917.851,95.437,541.062,538.369,0.0
53559.0,STARLINK-4508,PAYLOAD,2023-11-14 04:09:48,15.08846202,0.000152,53.2164,264.2812,76.8817,283.2344,0.00024981,3.691e-05,0.0,0 STARLINK-4508,1 53559U 22101AJ  23318.17347435  .00003691  00000-0  24981-3 0  9990,2 53559  53.2164 264.2812 0001520  76.8817 283.2344 15.08846202 68512,6917.861,95.437,540.778,538.675,0.0
53559.0,STARLINK-4508,PAYLOAD,2023-11-14 13:42:07,15.08838695,0.0001789,53.2164,262.4964,88.4395,271.6802,2.9292e-05,1.78e-06,0.0,0 STARLINK-4508,1 53559U 22101AJ  23318.57091546  .00000178  00000-0  29292-4 0  9991,2 53559  53.2164 262.4964 0001789  88.4395 271.6802 15.08838695 68570,6917.884,95.438,540.987,538.512,0.0
53559.0,STARLINK-4508,PAYLOAD,2023-11-15 05:35:58,15.08847535,0.0001481,53.217,259.5204,95.4893,264.6268,0.00016913,2.405e-05,0.0,0 STARLINK-4508,1 53559U 22101AJ  23319.23331109  .00002405  00000-0  16913-3 0  9997,2 53559  53.2170 259.5204 0001481  95.4893 264.6268 15.08847535 68673,6917.857,95.437,540.747,538.698,0.0
53559.0,STARLINK-4508,PAYLOAD,2023-11-16 02:15:59,15.08846525,0.0001907,53.2172,255.6588,80.9002,279.2206,0.00022047,3.223e-05,0.0,0 STARLINK-4508,1 53559U 22101AJ  23320.09443470  .00003223  00000-0  22047-3 0  9992,2 53559  53.2172 255.6588 0001907  80.9002 279.2206 15.08846525 68808,6917.86,95.437,541.045,538.406,0.0
53559.0,STARLINK-4508,PAYLOAD,2023-11-17 00:31:22,15.0884357,0.0001626,53.2174,251.4905,91.5934,268.5244,0.00013156,1.807e-05,0.0,0 STARLINK-4508,1 53559U 22101AJ  23321.02179329  .00001807  00000-0  13156-3 0  9992,2 53559  53.2174 251.4905 0001626  91.5934 268.5244 15.08843570 68942,6917.869,95.437,540.859,538.61,0.0
53559.0,STARLINK-4508,PAYLOAD,2023-11-17 05:17:32,15.088449,0.0001688,53.2173,250.6017,80.6149,279.5034,4.9214e-05,4.95e-06,0.0,0 STARLINK-4508,1 53559U 22101AJ  23321.22051287  .00000495  00000-0  49214-4 0  9993,2 53559  53.2173 250.6017 0001688  80.6149 279.5034 15.08844900 68971,6917.865,95.437,540.898,538.563,0.0
53559.0,STARLINK-4508,PAYLOAD,2023-11-17 22:46:47,15.08831557,0.0001575,53.2167,247.3283,95.809,264.3081,1.6596e-05,-2.4e-07,0.0,0 STARLINK-4508,1 53559U 22101AJ  23321.94916109 -.00000024  00000-0  16596-4 0  9991,2 53559  53.2167 247.3283 0001575  95.8090 264.3081 15.08831557 69081,6917.906,95.438,540.861,538.682,0.0
53559.0,STARLINK-4508,PAYLOAD,2023-11-18 00:22:10,15.08831632,0.0001597,53.2166,247.0309,95.0675,265.0499,2.6988e-05,1.41e-06,0.0,0 STARLINK-4508,1 53559U 22101AJ  23322.01540126  .00000141  00000-0  26988-4 0  9997,2 53559  53.2166 247.0309 0001597  95.0675 265.0499 15.08831632 69097,6917.906,95.438,540.876,538.666,0.0
53559.0,STARLINK-4508,PAYLOAD,2023-11-18 05:08:20,15.08845244,0.0001681,53.2175,246.1392,93.5063,266.6121,-0.000172,-3.025e-05,0.0,0 STARLINK-4508,1 53559U 22101AJ  23322.21412064 -.00003025  00000-0 -17200-3 0  9990,2 53559  53.2175 246.1392 0001681  93.5063 266.6121 15.08845244 69124,6917.864,95.437,540.892,538.566,0.0
53559.0,STARLINK-4508,PAYLOAD,2023-11-19 11:20:38,15.08852949,0.0001515,53.2179,240.4921,83.4896,276.6268,-2.4478e-05,-6.78e-06,0.0,0 STARLINK-4508,1 53559U 22101AJ  23323.47267197 -.00000678  00000-0 -24478-4 0  9991,2 53559  53.2179 240.4921 0001515  83.4896 276.6268 15.08852949 69315,6917.841,95.437,540.754,538.658,0.0
53559.0,STARLINK-4508,PAYLOAD,2023-11-19 22:28:21,15.08826691,0.0001658,53.2187,238.4136,96.2095,263.9086,0.0002329,3.419e-05,0.0,0 STARLINK-4508,1 53559U 22101AJ  23323.93636429  .00003419  00000-0  23290-3 0  9994,2 53559  53.2187 238.4136 0001658  96.2095 263.9086 15.08826691 69389,6917.921,95.438,540.933,538.639,0.0
